FENGYUN 1C DEB          
1 31630U 99025CAL 26086.76262085  .00015028  00000+0  67198-3 0  9995
2 31630  98.0984 265.0743 0150413   1.5218 358.6438 15.11754070  1606
FENGYUN 1C DEB          
1 31631U 99025CAM 26086.55814198  .00078072  00000+0  86669-2 0  9992
2 31631  99.3404  19.0885 0043551   3.5109 356.6399 14.86137107655210
FENGYUN 1C DEB          
1 31633U 99025CAP 26083.26548512  .00001129  00000+0  69238-3 0  9996
2 31633  98.7102  98.7282 0064743 246.5921 112.8431 14.06702936585112
FENGYUN 1C DEB          
1 31634U 99025CAQ 26083.35797557  .00000553  00000+0  43220-3 0  9995
2 31634  99.3502 136.2619 0090606 242.2582 116.9367 13.94767126579405
FENGYUN 1C DEB          
1 31639U 99025CAV 26088.13140610  .00000102  00000+0  11408-3 0  9996
2 31639  98.7573  32.0033 0160386 216.2015 159.8816 13.85216833951615
FENGYUN 1C DEB          
1 31642U 99025CAY 26087.50894838  .00000695  00000+0  24724-3 0  9990
2 31642  98.4909 172.8303 0118329 303.3490  55.6412 14.33645896985348
FENGYUN 1C DEB          
1 31644U 99025CBA 26081.48622817  .00006744  00000+0  96861-3 0  9991
2 31644  98.6629 342.3186 0149738 232.0321 302.8849 14.69388053725085
FENGYUN 1C DEB          
1 31648U 99025CBE 26086.46894104  .00004867  00000+0  24408-2 0  9999
2 31648 102.7919 319.7284 0042987 262.6828  96.9444 14.16912015733808
FENGYUN 1C DEB          
1 31656U 99025CBN 26085.96558642  .00007732  00000+0  20499-2 0  9996
2 31656  99.1992  88.8309 0022713 102.6215 287.0921 14.48861792979644
FENGYUN 1C DEB          
1 31657U 99025CBP 26087.08054705  .00003187  00000+0  20991-2 0  9990
2 31657 102.2184  30.8815 0140333 158.6871 202.0204 13.98241248643361
FENGYUN 1C DEB          
1 31658U 99025CBQ 26080.54321858  .00004168  00000+0  23610-2 0  9992
2 31658  98.1503 283.9652 0212088  43.0150 318.7380 13.99806341711980
FENGYUN 1C DEB          
1 31660U 99025CBS 26087.74391529  .00001347  00000+0  53624-3 0  9991
2 31660  98.5103  91.2677 0100202 229.8158 129.4219 14.27537866 94286
FENGYUN 1C DEB          
1 31661U 99025CBT 26088.20111050  .00003794  00000+0  15749-2 0  9996
2 31661  98.8490 173.3852 0056137 274.7555 140.4408 14.26236887972302
FENGYUN 1C DEB          
1 31663U 99025CBV 26088.01452735  .00002661  00000+0  28984-3 0  9993
2 31663  98.8378  10.9670 0187565 263.1536  94.8300 14.77082301  8426
FENGYUN 1C DEB          
1 31664U 99025CBW 26087.93556626  .00000453  00000+0  25999-3 0  9998
2 31664  98.7620  81.7108 0123523 217.2837 141.9712 14.10484674974986
FENGYUN 1C DEB          
1 31665U 99025CBX 26087.06014643  .00001409  00000+0  11160-2 0  9997
2 31665  98.4384 124.6303 0186050 257.7630 100.2639 13.85148253946491
