[{"OBJECT_NAME":"FENGYUN 1C DEB","OBJECT_ID":"1999-025CAL","EPOCH":"2026-03-27T18:18:10.441440","MEAN_MOTION":15.1175407,"ECCENTRICITY":0.01504134,"INCLINATION":98.0984,"RA_OF_ASC_NODE":265.0743,"ARG_OF_PERICENTER":1.5218,"MEAN_ANOMALY":358.6438,"EPHEMERIS_TYPE":0,"CLASSIFICATION_TYPE":"U","NORAD_CAT_ID":31630,"ELEMENT_SET_NO":999,"REV_AT_EPOCH":160,"BSTAR":0.00067197694,"MEAN_MOTION_DOT":0.00015028,"MEAN_MOTION_DDOT":0},{"OBJECT_NAME":"FENGYUN 1C DEB","OBJECT_ID":"1999-025CAM","EPOCH":"2026-03-27T13:23:43.467072","MEAN_MOTION":14.86137107,"ECCENTRICITY":0.0043551,"INCLINATION":99.3404,"RA_OF_ASC_NODE":19.0885,"ARG_OF_PERICENTER":3.5109,"MEAN_ANOMALY":356.6399,"EPHEMERIS_TYPE":0,"CLASSIFICATION_TYPE":"U","NORAD_CAT_ID":31631,"ELEMENT_SET_NO":999,"REV_AT_EPOCH":65521,"BSTAR":0.0086669,"MEAN_MOTION_DOT":0.00078072,"MEAN_MOTION_DDOT":0},{"OBJECT_NAME":"FENGYUN 1C DEB","OBJECT_ID":"1999-025CAP","EPOCH":"2026-03-24T06:22:17.914368","MEAN_MOTION":14.06702936,"ECCENTRICITY":0.0064743,"INCLINATION":98.7102,"RA_OF_ASC_NODE":98.7282,"ARG_OF_PERICENTER":246.5921,"MEAN_ANOMALY":112.8431,"EPHEMERIS_TYPE":0,"CLASSIFICATION_TYPE":"U","NORAD_CAT_ID":31633,"ELEMENT_SET_NO":999,"REV_AT_EPOCH":58511,"BSTAR":0.00069238,"MEAN_MOTION_DOT":1.129e-5,"MEAN_MOTION_DDOT":0},{"OBJECT_NAME":"FENGYUN 1C DEB","OBJECT_ID":"1999-025CAQ","EPOCH":"2026-03-24T08:35:29.089248","MEAN_MOTION":13.94767126,"ECCENTRICITY":0.00906069,"INCLINATION":99.3502,"RA_OF_ASC_NODE":136.2619,"ARG_OF_PERICENTER":242.2582,"MEAN_ANOMALY":116.9367,"EPHEMERIS_TYPE":0,"CLASSIFICATION_TYPE":"U","NORAD_CAT_ID":31634,"ELEMENT_SET_NO":999,"REV_AT_EPOCH":57940,"BSTAR":0.00043220479,"MEAN_MOTION_DOT":5.53e-6,"MEAN_MOTION_DDOT":0},{"OBJECT_NAME":"FENGYUN 1C DEB","OBJECT_ID":"1999-025CAV","EPOCH":"2026-03-29T03:09:13.487040","MEAN_MOTION":13.85216833,"ECCENTRICITY":0.0160386,"INCLINATION":98.7573,"RA_OF_ASC_NODE":32.0033,"ARG_OF_PERICENTER":216.2015,"MEAN_ANOMALY":159.8816,"EPHEMERIS_TYPE":0,"CLASSIFICATION_TYPE":"U","NORAD_CAT_ID":31639,"ELEMENT_SET_NO":999,"REV_AT_EPOCH":95161,"BSTAR":0.00011408,"MEAN_MOTION_DOT":1.02e-6,"MEAN_MOTION_DDOT":0},{"OBJECT_NAME":"FENGYUN 1C DEB","OBJECT_ID":"1999-025CAY","EPOCH":"2026-03-28T12:12:53.140032","MEAN_MOTION":14.33645896,"ECCENTRICITY":0.0118329,"INCLINATION":98.4909,"RA_OF_ASC_NODE":172.8303,"ARG_OF_PERICENTER":303.349,"MEAN_ANOMALY":55.6412,"EPHEMERIS_TYPE":0,"CLASSIFICATION_TYPE":"U","NORAD_CAT_ID":31642,"ELEMENT_SET_NO":999,"REV_AT_EPOCH":98534,"BSTAR":0.00024724,"MEAN_MOTION_DOT":6.95e-6,"MEAN_MOTION_DDOT":0},{"OBJECT_NAME":"FENGYUN 1C DEB","OBJECT_ID":"1999-025CBA","EPOCH":"2026-03-22T11:40:10.113888","MEAN_MOTION":14.69388053,"ECCENTRICITY":0.01497386,"INCLINATION":98.6629,"RA_OF_ASC_NODE":342.3186,"ARG_OF_PERICENTER":232.0321,"MEAN_ANOMALY":302.8849,"EPHEMERIS_TYPE":0,"CLASSIFICATION_TYPE":"U","NORAD_CAT_ID":31644,"ELEMENT_SET_NO":999,"REV_AT_EPOCH":72508,"BSTAR":0.00096860735,"MEAN_MOTION_DOT":6.744e-5,"MEAN_MOTION_DDOT":0},{"OBJECT_NAME":"FENGYUN 1C DEB","OBJECT_ID":"1999-025CBE","EPOCH":"2026-03-27T11:15:16.505856","MEAN_MOTION":14.16912015,"ECCENTRICITY":0.0042987,"INCLINATION":102.7919,"RA_OF_ASC_NODE":319.7284,"ARG_OF_PERICENTER":262.6828,"MEAN_ANOMALY":96.9444,"EPHEMERIS_TYPE":0,"CLASSIFICATION_TYPE":"U","NORAD_CAT_ID":31648,"ELEMENT_SET_NO":999,"REV_AT_EPOCH":73380,"BSTAR":0.0024408,"MEAN_MOTION_DOT":4.867e-5,"MEAN_MOTION_DDOT":0},{"OBJECT_NAME":"FENGYUN 1C DEB","OBJECT_ID":"1999-025CBN","EPOCH":"2026-03-26T23:10:26.666688","MEAN_MOTION":14.48861792,"ECCENTRICITY":0.0022713,"INCLINATION":99.1992,"RA_OF_ASC_NODE":88.8309,"ARG_OF_PERICENTER":102.6215,"MEAN_ANOMALY":287.0921,"EPHEMERIS_TYPE":0,"CLASSIFICATION_TYPE":"U","NORAD_CAT_ID":31656,"ELEMENT_SET_NO":999,"REV_AT_EPOCH":97964,"BSTAR":0.0020499,"MEAN_MOTION_DOT":7.732e-5,"MEAN_MOTION_DDOT":0},{"OBJECT_NAME":"FENGYUN 1C DEB","OBJECT_ID":"1999-025CBP","EPOCH":"2026-03-28T01:55:59.265120","MEAN_MOTION":13.98241248,"ECCENTRICITY":0.01403333,"INCLINATION":102.2184,"RA_OF_ASC_NODE":30.8815,"ARG_OF_PERICENTER":158.6871,"MEAN_ANOMALY":202.0204,"EPHEMERIS_TYPE":0,"CLASSIFICATION_TYPE":"U","NORAD_CAT_ID":31657,"ELEMENT_SET_NO":999,"REV_AT_EPOCH":64336,"BSTAR":0.0020991439,"MEAN_MOTION_DOT":3.187e-5,"MEAN_MOTION_DDOT":0},{"OBJECT_NAME":"FENGYUN 1C DEB","OBJECT_ID":"1999-025CBQ","EPOCH":"2026-03-21T13:02:14.085312","MEAN_MOTION":13.99806341,"ECCENTRICITY":0.02120882,"INCLINATION":98.1503,"RA_OF_ASC_NODE":283.9652,"ARG_OF_PERICENTER":43.015,"MEAN_ANOMALY":318.738,"EPHEMERIS_TYPE":0,"CLASSIFICATION_TYPE":"U","NORAD_CAT_ID":31658,"ELEMENT_SET_NO":999,"REV_AT_EPOCH":71198,"BSTAR":0.0023609644,"MEAN_MOTION_DOT":4.168e-5,"MEAN_MOTION_DDOT":0},{"OBJECT_NAME":"FENGYUN 1C DEB","OBJECT_ID":"1999-025CBS","EPOCH":"2026-03-28T17:51:14.281056","MEAN_MOTION":14.27537866,"ECCENTRICITY":0.0100202,"INCLINATION":98.5103,"RA_OF_ASC_NODE":91.2677,"ARG_OF_PERICENTER":229.8158,"MEAN_ANOMALY":129.4219,"EPHEMERIS_TYPE":0,"CLASSIFICATION_TYPE":"U","NORAD_CAT_ID":31660,"ELEMENT_SET_NO":999,"REV_AT_EPOCH":9428,"BSTAR":0.00053624,"MEAN_MOTION_DOT":1.347e-5,"MEAN_MOTION_DDOT":0},{"OBJECT_NAME":"FENGYUN 1C DEB","OBJECT_ID":"1999-025CBT","EPOCH":"2026-03-29T04:49:35.947200","MEAN_MOTION":14.26236887,"ECCENTRICITY":0.0056137,"INCLINATION":98.849,"RA_OF_ASC_NODE":173.3852,"ARG_OF_PERICENTER":274.7555,"MEAN_ANOMALY":140.4408,"EPHEMERIS_TYPE":0,"CLASSIFICATION_TYPE":"U","NORAD_CAT_ID":31661,"ELEMENT_SET_NO":999,"REV_AT_EPOCH":97230,"BSTAR":0.0015749,"MEAN_MOTION_DOT":3.794e-5,"MEAN_MOTION_DDOT":0},{"OBJECT_NAME":"FENGYUN 1C DEB","OBJECT_ID":"1999-025CBV","EPOCH":"2026-03-29T00:20:55.163040","MEAN_MOTION":14.77082301,"ECCENTRICITY":0.0187565,"INCLINATION":98.8378,"RA_OF_ASC_NODE":10.967,"ARG_OF_PERICENTER":263.1536,"MEAN_ANOMALY":94.83,"EPHEMERIS_TYPE":0,"CLASSIFICATION_TYPE":"U","NORAD_CAT_ID":31663,"ELEMENT_SET_NO":999,"REV_AT_EPOCH":842,"BSTAR":0.00028984,"MEAN_MOTION_DOT":2.661e-5,"MEAN_MOTION_DDOT":0},{"OBJECT_NAME":"FENGYUN 1C DEB","OBJECT_ID":"1999-025CBW","EPOCH":"2026-03-28T22:27:12.924864","MEAN_MOTION":14.10484674,"ECCENTRICITY":0.0123523,"INCLINATION":98.762,"RA_OF_ASC_NODE":81.7108,"ARG_OF_PERICENTER":217.2837,"MEAN_ANOMALY":141.9712,"EPHEMERIS_TYPE":0,"CLASSIFICATION_TYPE":"U","NORAD_CAT_ID":31664,"ELEMENT_SET_NO":999,"REV_AT_EPOCH":97498,"BSTAR":0.00025999,"MEAN_MOTION_DOT":4.53e-6,"MEAN_MOTION_DDOT":0},{"OBJECT_NAME":"FENGYUN 1C DEB","OBJECT_ID":"1999-025CBX","EPOCH":"2026-03-28T01:26:36.651552","MEAN_MOTION":13.85148253,"ECCENTRICITY":0.01860502,"INCLINATION":98.4384,"RA_OF_ASC_NODE":124.6303,"ARG_OF_PERICENTER":257.763,"MEAN_ANOMALY":100.2639,"EPHEMERIS_TYPE":0,"CLASSIFICATION_TYPE":"U","NORAD_CAT_ID":31665,"ELEMENT_SET_NO":999,"REV_AT_EPOCH":94649,"BSTAR":0.0011160308,"MEAN_MOTION_DOT":1.409e-5,"MEAN_MOTION_DDOT":0}]
